NORAD_CAT_ID,OBJECT_NAME,OBJECT_TYPE,EPOCH,MEAN_MOTION,ECCENTRICITY,INCLINATION,RA_OF_ASC_NODE,ARG_OF_PERICENTER,MEAN_ANOMALY,BSTAR,MEAN_MOTION_DOT,MEAN_MOTION_DDOT,TLE_LINE0,TLE_LINE1,TLE_LINE2,SEMIMAJOR_AXIS,PERIOD,APOGEE,PERIGEE,DECAYED
52360.0,STARLINK-3824,PAYLOAD,2022-05-26 22:00:00,15.7316006,0.0001105,53.2133,302.4756,37.0242,104.3187,0.00050661,0.0007096,0.0,0 STARLINK-3824,1 52360U 22045AF  22146.91667824  .00070960  00000-0  50661-3 0  9990,2 52360  53.2133 302.4756 0001105  37.0242 104.3187 15.73160060  1304,6728.009,91.536,350.617,349.131,0.0
52360.0,STARLINK-3824,PAYLOAD,2022-05-27 14:10:25,15.731903099999998,0.0001122,53.2143,299.139,50.2096,309.9023,-8.0498e-07,-7.32e-06,0.0,0 STARLINK-3824,1 52360U 22045AF  22147.59057540 -.00000732  00000-0 -80498-6 0  9999,2 52360  53.2143 299.1390 0001122  50.2096 309.9023 15.73190310  6908,6727.9230000000025,91.534,350.543,349.033,0.0
52360.0,STARLINK-3824,PAYLOAD,2022-05-27 16:00:00,15.73208971,0.0001232,53.2131,298.7636,43.6277,27.7336,1.0271e-05,8.22e-06,0.0,0 STARLINK-3824,1 52360U 22045AF  22147.66667824  .00000822  00000-0  10271-4 0  9997,2 52360  53.2131 298.7636 0001232  43.6277  27.7336 15.73208971  6918,6727.87,91.533,350.56300000000016,348.906,0.0
52360.0,STARLINK-3824,PAYLOAD,2022-05-27 22:00:01,15.73213013,0.0001348,53.2129,297.5267,39.2884,8.8433,-7.0224e-05,-0.00010469,0.0,0 STARLINK-3824,1 52360U 22045AF  22147.91668981 -.00010469  00000-0 -70224-4 0  9994,2 52360  53.2129 297.5267 0001348  39.2884   8.8433 15.73213013  1304,6727.858,91.532,350.63,348.816,0.0
52360.0,STARLINK-3824,PAYLOAD,2022-05-28 06:00:02,15.7290594,0.0001072,53.216,295.8745,32.2809,104.8997,0.0022268,0.00320064,0.0,0 STARLINK-3824,1 52360U 22045AF  22148.25002315  .00320064  00000-0  22268-2 0  9991,2 52360  53.2160 295.8745 0001072  32.2809 104.8997 15.72905940  7006,6728.734,91.55,351.32,349.87699999999984,0.0
52360.0,STARLINK-3824,PAYLOAD,2022-05-28 14:00:01,15.73241487,0.0001481,53.2147,294.2267,48.9068,177.0921,-0.00047762,-0.00067237,0.0,0 STARLINK-3824,1 52360U 22045AF  22148.58334491 -.00067237  00000-0 -47762-3 0  9999,2 52360  53.2147 294.2267 0001481  48.9068 177.0921 15.73241487  7052,6727.776999999999,91.531,350.63800000000015,348.646,0.0
52360.0,STARLINK-3824,PAYLOAD,2022-05-28 19:08:31,15.73219757,0.0001448,53.2143,293.1649,50.4811,309.6337,3.8693e-05,4.818e-05,0.0,0 STARLINK-3824,1 52360U 22045AF  22148.79759166  .00004818  00000-0  38693-4 0  9990,2 52360  53.2143 293.1649 0001448  50.4811 309.6337 15.73219757  7090,6727.839,91.532,350.67800000000005,348.73,0.0
52360.0,STARLINK-3824,PAYLOAD,2022-05-29 13:26:17,15.73220657,0.0001551,53.214,289.3928,53.9279,306.1885,2.5223e-05,2.924e-05,0.0,0 STARLINK-3824,1 52360U 22045AF  22149.55992260  .00002924  00000-0  25223-4 0  9990,2 52360  53.2140 289.3928 0001551  53.9279 306.1885 15.73220657  7210,6727.8359999999975,91.532,350.745,348.658,0.0
52360.0,STARLINK-3824,PAYLOAD,2022-05-29 19:32:13,15.73186983,0.0001264,53.2137,288.1359,49.589,310.5241,-2.5368e-05,-4.176e-05,0.0,0 STARLINK-3824,1 52360U 22045AF  22149.81405009 -.00004176  00000-0 -25368-4 0  9992,2 52360  53.2137 288.1359 0001264  49.5890 310.5241 15.73186983  7254,6727.932,91.534,350.648,348.94699999999995,0.0
52360.0,STARLINK-3824,PAYLOAD,2022-05-29 20:00:01,15.73101093,0.0001786999999999,53.2134,288.0412,44.096,65.4586,0.00047161,0.00065808,0.0,0 STARLINK-3824,1 52360U 22045AF  22149.83334491  .00065808  00000-0  47161-3 0  9991,2 52360  53.2134 288.0412 0001787  44.0960  65.4586 15.73101093  7255,6728.177,91.539,351.245,348.84,0.0
52360.0,STARLINK-3824,PAYLOAD,2022-05-30 14:00:01,15.73190533,0.0001776999999999,53.214,284.3289,44.7228,354.7461,7.4953e-05,9.907e-05,0.0,0 STARLINK-3824,1 52360U 22045AF  22150.58334491  .00009907  00000-0  74953-4 0  9993,2 52360  53.2140 284.3289 0001777  44.7228 354.7461 15.73190533  1309,6727.922,91.534,350.983,348.592,0.0
52360.0,STARLINK-3824,PAYLOAD,2022-05-30 22:00:00,15.73229245,0.0001831,53.2137,282.6798,38.6437,89.7444,-3.4232e-05,-5.429e-05,0.0,0 STARLINK-3824,1 52360U 22045AF  22150.91667824 -.00005429  00000-0 -34232-4 0  9992,2 52360  53.2137 282.6798 0001831  38.6437  89.7444 15.73229245  7424,6727.812,91.531,350.909,348.445,0.0
52360.0,STARLINK-3824,PAYLOAD,2022-05-31 06:00:02,15.73179828,0.0001559,53.2137,281.0282,38.2425,179.1882,0.00041089,0.00057391,0.0,0 STARLINK-3824,1 52360U 22045AF  22151.25002315  .00057391  00000-0  41089-3 0  9998,2 52360  53.2137 281.0282 0001559  38.2425 179.1882 15.73179828  1307,6727.953,91.534,350.867,348.769,0.0
52360.0,STARLINK-3824,PAYLOAD,2022-05-31 22:00:00,15.73278736,0.0001872,53.2133,277.7312,32.5945,2.6418,-0.00053261,-0.00074963,0.0,0 STARLINK-3824,1 52360U 22045AF  22151.91667824 -.00074963  00000-0 -53261-3 0  9994,2 52360  53.2133 277.7312 0001872  32.5945   2.6418 15.73278736  1304,6727.670999999999,91.529,350.795,348.276,0.0
52360.0,STARLINK-3824,PAYLOAD,2022-06-01 06:00:00,15.73197335,0.0001727,53.2136,276.0796,40.8899,83.3409,0.00051685,0.00072538,0.0,0 STARLINK-3824,1 52360U 22045AF  22152.25001157  .00072538  00000-0  51685-3 0  9995,2 52360  53.2136 276.0796 0001727  40.8899  83.3409 15.73197335  7637,6727.903,91.533,350.93,348.606,0.0
52360.0,STARLINK-3824,PAYLOAD,2022-06-01 14:00:01,15.73237406,0.0001924,53.2138,274.4317,35.543,177.6447,-0.00040222,-0.00056785,0.0,0 STARLINK-3824,1 52360U 22045AF  22152.58334491 -.00056785  00000-0 -40222-3 0  9994,2 52360  53.2138 274.4317 0001924  35.5430 177.6447 15.73237406  7689,6727.7890000000025,91.531,350.9480000000001,348.3590000000001,0.0
52360.0,STARLINK-3824,PAYLOAD,2022-06-01 20:00:01,15.73210791,0.0002025,53.2135,273.1951,32.3372,157.5708,-0.00027506,-0.00039066,0.0,0 STARLINK-3824,1 52360U 22045AF  22152.83334491 -.00039066  00000-0 -27506-3 0  9995,2 52360  53.2135 273.1951 0002025  32.3372 157.5708 15.73210791  1307,6727.864000000001,91.533,351.092,348.367,0.0
52360.0,STARLINK-3824,PAYLOAD,2022-06-02 16:32:31,15.73203425,0.000203,53.214,268.9578,47.3088,312.8103,4.8398e-06,5.8e-07,0.0,0 STARLINK-3824,1 52360U 22045AF  22153.68925485  .00000058  00000-0  48398-5 0  9999,2 52360  53.2140 268.9578 0002030  47.3088 312.8103 15.73203425  7864,6727.885,91.533,351.116,348.385,0.0
52360.0,STARLINK-3824,PAYLOAD,2022-06-03 10:50:16,15.7321176,0.0001854,53.2134,265.1837,41.0006,319.1153,-8.7527e-06,-1.85e-05,0.0,0 STARLINK-3824,1 52360U 22045AF  22154.45158193 -.00001850  00000-0 -87527-5 0  9999,2 52360  53.2134 265.1837 0001854  41.0006 319.1153 15.73211760  7987,6727.861999999999,91.532,350.974,348.47900000000016,0.0
52360.0,STARLINK-3824,PAYLOAD,2022-06-03 13:53:14,15.73212031,0.0002069,53.2139,264.5565,38.7527,321.3642,-7.1371000000000015e-06,-1.623e-05,0.0,0 STARLINK-3824,1 52360U 22045AF  22154.57863797 -.00001623  00000-0 -71371-5 0  9993,2 52360  53.2139 264.5565 0002069  38.7527 321.3642 15.73212031  8007,6727.861,91.532,351.11800000000005,348.334,0.0
52360.0,STARLINK-3824,PAYLOAD,2022-06-03 18:27:40,15.73214577,0.0002158,53.2137,263.6136,37.3543,322.7627,1.0007e-06,-4.81e-06,0.0,0 STARLINK-3824,1 52360U 22045AF  22154.76922022 -.00000481  00000-0  10007-5 0  9990,2 52360  53.2137 263.6136 0002158  37.3543 322.7627 15.73214577  8039,6727.854,91.532,351.17,348.267,0.0
52360.0,STARLINK-3824,PAYLOAD,2022-06-04 12:46:08,15.72113811,0.000657,53.2138,259.8438,94.6294,265.5476,-0.0019035,-0.00248686,0.0,0 STARLINK-3824,1 52360U 22045AF  22155.53204772 -.00248686  00000-0 -19035-2 0  9990,2 52360  53.2138 259.8438 0006570  94.6294 265.5476 15.72113811  8150,6730.994000000002,91.596,357.281,348.436,0.0
52360.0,STARLINK-3824,PAYLOAD,2022-06-05 22:00:00,15.73227677,0.0002323,53.2135,252.9873,22.882,266.4602,-2.382800000000001e-05,-3.969e-05,0.0,0 STARLINK-3824,1 52360U 22045AF  22156.91667824 -.00003969  00000-0 -23828-4 0  9994,2 52360  53.2135 252.9873 0002323  22.8820 266.4602 15.73227677  8365,6727.816,91.532,351.244,348.11800000000005,0.0
52360.0,STARLINK-3824,PAYLOAD,2022-06-06 06:00:00,15.73204498,0.000239,53.2176,251.3354,35.3143,342.7795,2.6487e-06,-2.5e-06,0.0,0 STARLINK-3824,1 52360U 22045AF  22157.25001157 -.00000250  00000-0  26487-5 0  9997,2 52360  53.2176 251.3354 0002390  35.3143 342.7795 15.73204498  8422,6727.882,91.533,351.355,348.139,0.0
52360.0,STARLINK-3824,PAYLOAD,2022-06-06 14:00:01,15.73175638,0.0002639,53.2145,249.689,30.5425,76.7523,0.00021232,0.00029253,0.0,0 STARLINK-3824,1 52360U 22045AF  22157.58334491  .00029253  00000-0  21232-3 0  9997,2 52360  53.2145 249.6890 0002639  30.5425  76.7523 15.73175638  8470,6727.965,91.535,351.605,348.05400000000014,0.0
52360.0,STARLINK-3824,PAYLOAD,2022-06-06 22:00:00,15.73257348,0.0002496,53.214,248.0384,28.931,167.2869,-0.00079799,-0.00111437,0.0,0 STARLINK-3824,1 52360U 22045AF  22157.91667824 -.00111437  00000-0 -79799-3 0  9992,2 52360  53.2140 248.0384 0002496  28.9310 167.2869 15.73257348  1304,6727.732,91.53,351.276,347.917,0.0
52360.0,STARLINK-3824,PAYLOAD,2022-06-07 14:00:01,15.73228225,0.0002559,53.2146,244.7403,23.945,350.1429,-0.0004655,-0.00065536,0.0,0 STARLINK-3824,1 52360U 22045AF  22158.58334491 -.00065536  00000-0 -46550-3 0  9994,2 52360  53.2146 244.7403 0002559  23.9450 350.1429 15.73228225  8635,6727.815,91.532,351.401,347.958,0.0
52360.0,STARLINK-3824,PAYLOAD,2022-06-07 22:00:00,15.73199689,0.0002472,53.2145,243.0894,19.7871,83.26299999999998,0.00013697,0.00018646,0.0,0 STARLINK-3824,1 52360U 22045AF  22158.91667824  .00018646  00000-0  13697-3 0  9994,2 52360  53.2145 243.0894 0002472  19.7871  83.2630 15.73199689  8688,6727.896,91.533,351.4240000000001,348.098,0.0
52360.0,STARLINK-3824,PAYLOAD,2022-06-08 14:00:01,15.73250335,0.0002648999999999,53.2143,239.7917,19.9628,260.9568,-0.00071942,-0.00100627,0.0,0 STARLINK-3824,1 52360U 22045AF  22159.58334491 -.00100627  00000-0 -71942-3 0  9999,2 52360  53.2143 239.7917 0002649  19.9628 260.9568 15.73250335  1304,6727.752,91.53,351.399,347.834,0.0
